*******************************************************************************
Ephemeris / WWW_USER Thu May 23 17:15:41 2024 Pasadena, USA      / Horizons    
*******************************************************************************
Target body name: (2018 RC)                       {source: JPL#21}
Center body name: Earth (399)                     {source: DE441}
Center-site name: Gemini South Obs., Cerro Pachon
*******************************************************************************
Start time      : A.D. 2018-Sep-09 22:40:00.0000 UT      
Stop  time      : A.D. 2018-Sep-10 10:39:00.0000 UT      
Step-size       : 1 minutes
*******************************************************************************
Target pole/equ : undefined
Target radii    : undefined                                                    
Center geodetic : 289.2634, -30.2406227, 2.71233  {E-lon(deg),Lat(deg),Alt(km)}
Center cylindric: 289.2634,5517.21435,-3194.81213 {E-lon(deg),Dxy(km),Dz(km)}
Center pole/equ : ITRF93                          {East-longitude positive}
Center radii    : 6378.137, 6378.137, 6356.752 km {Equator_a, b, pole_c}       
Target primary  : Sun
Vis. interferer : MOON (R_eq= 1737.400) km        {source: DE441}
Rel. light bend : Sun                             {source: DE441}
Rel. lght bnd GM: 1.3271E+11 km^3/s^2                                          
Small-body perts: Yes                             {source: SB441-N16}
Atmos refraction: NO (AIRLESS)
RA format       : HMS
Time format     : CAL 
Calendar mode   : Mixed Julian/Gregorian
RTS-only print  : NO       
EOP file        : eop.240523.p240816                                           
EOP coverage    : DATA-BASED 1962-JAN-20 TO 2024-MAY-23. PREDICTS-> 2024-AUG-15
Units conversion: 1 au= 149597870.700 km, c= 299792.458 km/s, 1 day= 86400.0 s 
Table cut-offs 1: Elevation (-90.0deg=NO ),Airmass (>38.000=NO), Daylight (YES)
Table cut-offs 2: Solar elongation (  0.0,180.0=NO ),Local Hour Angle( 0.0=NO )
Table cut-offs 3: RA/DEC angular rate (     0.0=NO )                           
*******************************************************************************
Initial IAU76/J2000 heliocentric ecliptic osculating elements (au, days, deg.):
  EPOCH=  2458369.5 ! 2018-Sep-08.00 (TDB)         Residual RMS= .84866        
   EC= .2426621660028976   QR= .647471518312811    TP= 2458473.8617576878      
   OM= 346.8893436915528   W=  145.8737085184167   IN= 1.612045057594462       
  Equivalent ICRF heliocentric cartesian coordinates (au, au/d):
   X= 9.781363708094483E-01  Y=-2.377942828764822E-01  Z=-1.040448782093900E-01
  VX= 1.501011538102481E-03 VY= 1.393070215815854E-02 VZ= 6.509326736836346E-03
Asteroid physical parameters (km, seconds, rotational period in hours):        
   GM= n.a.                RAD= n.a.               ROTPER= .16548              
   H= 24.93                G= .150                 B-V= n.a.                   
                           ALBEDO= n.a.            STYP= n.a.                  
*******************************************************************************
 Date__(UT)__HR:MN     R.A._________(ICRF)_________DEC
******************************************************
$$SOE
 2018-Sep-10 04:49     15 28 11.529740 -15 20 52.06372
 2018-Sep-10 04:50     15 28 05.779283 -15 20 06.65530
 2018-Sep-10 04:51     15 28 00.041082 -15 19 21.30916
 2018-Sep-10 04:52     15 27 54.315100 -15 18 36.02526
 2018-Sep-10 04:53     15 27 48.601301 -15 17 50.80357
 2018-Sep-10 04:54     15 27 42.899646 -15 17 05.64406
 2018-Sep-10 04:55     15 27 37.210100 -15 16 20.54670
 2018-Sep-10 04:56     15 27 31.532625 -15 15 35.51146
 2018-Sep-10 04:57     15 27 25.867184 -15 14 50.53830
 2018-Sep-10 04:58     15 27 20.213740 -15 14 05.62719
 2018-Sep-10 04:59     15 27 14.572256 -15 13 20.77809
 2018-Sep-10 05:00     15 27 08.942695 -15 12 35.99098
 2018-Sep-10 05:01     15 27 03.325020 -15 11 51.26581
 2018-Sep-10 05:02     15 26 57.719194 -15 11 06.60255
 2018-Sep-10 05:03     15 26 52.125181 -15 10 22.00116
 2018-Sep-10 05:04     15 26 46.542943 -15 09 37.46161
 2018-Sep-10 05:05     15 26 40.972444 -15 08 52.98385
 2018-Sep-10 05:06     15 26 35.413646 -15 08 08.56786
 2018-Sep-10 05:07     15 26 29.866514 -15 07 24.21359
 2018-Sep-10 05:08     15 26 24.331009 -15 06 39.92100
 2018-Sep-10 05:09     15 26 18.807096 -15 05 55.69005
 2018-Sep-10 05:10     15 26 13.294738 -15 05 11.52071
 2018-Sep-10 05:11     15 26 07.793897 -15 04 27.41293
 2018-Sep-10 05:12     15 26 02.304537 -15 03 43.36667
 2018-Sep-10 05:13     15 25 56.826622 -15 02 59.38189
 2018-Sep-10 05:14     15 25 51.360115 -15 02 15.45855
 2018-Sep-10 05:15     15 25 45.904979 -15 01 31.59661
 2018-Sep-10 05:16     15 25 40.461178 -15 00 47.79602
 2018-Sep-10 05:17     15 25 35.028674 -15 00 04.05673
 2018-Sep-10 05:18     15 25 29.607432 -14 59 20.37872
 2018-Sep-10 05:19     15 25 24.197415 -14 58 36.76192
 2018-Sep-10 05:20     15 25 18.798587 -14 57 53.20630
 2018-Sep-10 05:21     15 25 13.410910 -14 57 09.71181
 2018-Sep-10 05:22     15 25 08.034349 -14 56 26.27841
 2018-Sep-10 05:23     15 25 02.668867 -14 55 42.90604
 2018-Sep-10 05:24     15 24 57.314427 -14 54 59.59467
 2018-Sep-10 05:25     15 24 51.970994 -14 54 16.34423
 2018-Sep-10 05:26     15 24 46.638531 -14 53 33.15470
 2018-Sep-10 05:27     15 24 41.317001 -14 52 50.02601
 2018-Sep-10 05:28     15 24 36.006369 -14 52 06.95813
 2018-Sep-10 05:29     15 24 30.706598 -14 51 23.95099
 2018-Sep-10 05:30     15 24 25.417651 -14 50 41.00456
 2018-Sep-10 05:31     15 24 20.139494 -14 49 58.11878
 2018-Sep-10 05:32     15 24 14.872088 -14 49 15.29360
 2018-Sep-10 05:33     15 24 09.615400 -14 48 32.52896
 2018-Sep-10 05:34     15 24 04.369391 -14 47 49.82483
 2018-Sep-10 05:35     15 23 59.134027 -14 47 07.18115
 2018-Sep-10 05:36     15 23 53.909271 -14 46 24.59785
 2018-Sep-10 05:37     15 23 48.695087 -14 45 42.07491
 2018-Sep-10 05:38     15 23 43.491440 -14 44 59.61225
 2018-Sep-10 05:39     15 23 38.298292 -14 44 17.20983
 2018-Sep-10 05:40     15 23 33.115609 -14 43 34.86759
 2018-Sep-10 05:41     15 23 27.943355 -14 42 52.58547
 2018-Sep-10 05:42     15 23 22.781493 -14 42 10.36344
 2018-Sep-10 05:43     15 23 17.629988 -14 41 28.20142
 2018-Sep-10 05:44     15 23 12.488804 -14 40 46.09936
 2018-Sep-10 05:45     15 23 07.357905 -14 40 04.05721
 2018-Sep-10 05:46     15 23 02.237256 -14 39 22.07491
 2018-Sep-10 05:47     15 22 57.126821 -14 38 40.15241
 2018-Sep-10 05:48     15 22 52.026564 -14 37 58.28964
 2018-Sep-10 05:49     15 22 46.936450 -14 37 16.48655
 2018-Sep-10 05:50     15 22 41.856443 -14 36 34.74309
 2018-Sep-10 05:51     15 22 36.786508 -14 35 53.05919
 2018-Sep-10 05:52     15 22 31.726609 -14 35 11.43479
 2018-Sep-10 05:53     15 22 26.676710 -14 34 29.86984
 2018-Sep-10 05:54     15 22 21.636777 -14 33 48.36428
 2018-Sep-10 05:55     15 22 16.606774 -14 33 06.91805
 2018-Sep-10 05:56     15 22 11.586666 -14 32 25.53108
 2018-Sep-10 05:57     15 22 06.576417 -14 31 44.20332
 2018-Sep-10 05:58     15 22 01.575992 -14 31 02.93471
 2018-Sep-10 05:59     15 21 56.585355 -14 30 21.72518
 2018-Sep-10 06:00     15 21 51.604473 -14 29 40.57468
 2018-Sep-10 06:01     15 21 46.633308 -14 28 59.48313
 2018-Sep-10 06:02     15 21 41.671828 -14 28 18.45049
 2018-Sep-10 06:03     15 21 36.719995 -14 27 37.47668
 2018-Sep-10 06:04     15 21 31.777776 -14 26 56.56165
 2018-Sep-10 06:05     15 21 26.845135 -14 26 15.70533
 2018-Sep-10 06:06     15 21 21.922038 -14 25 34.90765
 2018-Sep-10 06:07     15 21 17.008449 -14 24 54.16856
 2018-Sep-10 06:08     15 21 12.104334 -14 24 13.48799
 2018-Sep-10 06:09     15 21 07.209658 -14 23 32.86587
 2018-Sep-10 06:10     15 21 02.324385 -14 22 52.30214
 2018-Sep-10 06:11     15 20 57.448482 -14 22 11.79673
 2018-Sep-10 06:12     15 20 52.581914 -14 21 31.34958
 2018-Sep-10 06:13     15 20 47.724646 -14 20 50.96063
 2018-Sep-10 06:14     15 20 42.876643 -14 20 10.62980
 2018-Sep-10 06:15     15 20 38.037871 -14 19 30.35703
 2018-Sep-10 06:16     15 20 33.208295 -14 18 50.14225
 2018-Sep-10 06:17     15 20 28.387881 -14 18 09.98540
 2018-Sep-10 06:18     15 20 23.576595 -14 17 29.88640
 2018-Sep-10 06:19     15 20 18.774402 -14 16 49.84520
 2018-Sep-10 06:20     15 20 13.981267 -14 16 09.86172
 2018-Sep-10 06:21     15 20 09.197157 -14 15 29.93589
 2018-Sep-10 06:22     15 20 04.422037 -14 14 50.06764
 2018-Sep-10 06:23     15 19 59.655873 -14 14 10.25691
 2018-Sep-10 06:24     15 19 54.898631 -14 13 30.50363
 2018-Sep-10 06:25     15 19 50.150276 -14 12 50.80772
 2018-Sep-10 06:26     15 19 45.410776 -14 12 11.16912
 2018-Sep-10 06:27     15 19 40.680094 -14 11 31.58776
 2018-Sep-10 06:28     15 19 35.958199 -14 10 52.06356
 2018-Sep-10 06:29     15 19 31.245055 -14 10 12.59646
 2018-Sep-10 06:30     15 19 26.540630 -14 09 33.18638
 2018-Sep-10 06:31     15 19 21.844888 -14 08 53.83325
 2018-Sep-10 06:32     15 19 17.157796 -14 08 14.53701
 2018-Sep-10 06:33     15 19 12.479321 -14 07 35.29757
 2018-Sep-10 06:34     15 19 07.809429 -14 06 56.11487
 2018-Sep-10 06:35     15 19 03.148086 -14 06 16.98883
 2018-Sep-10 06:36     15 18 58.495259 -14 05 37.91939
 2018-Sep-10 06:37     15 18 53.850914 -14 04 58.90646
 2018-Sep-10 06:38     15 18 49.215018 -14 04 19.94998
 2018-Sep-10 06:39     15 18 44.587537 -14 03 41.04987
 2018-Sep-10 06:40     15 18 39.968437 -14 03 02.20605
 2018-Sep-10 06:41     15 18 35.357686 -14 02 23.41847
 2018-Sep-10 06:42     15 18 30.755250 -14 01 44.68703
 2018-Sep-10 06:43     15 18 26.161096 -14 01 06.01166
 2018-Sep-10 06:44     15 18 21.575191 -14 00 27.39230
 2018-Sep-10 06:45     15 18 16.997502 -13 59 48.82886
 2018-Sep-10 06:46     15 18 12.427995 -13 59 10.32127
 2018-Sep-10 06:47     15 18 07.866637 -13 58 31.86945
 2018-Sep-10 06:48     15 18 03.313396 -13 57 53.47333
 2018-Sep-10 06:49     15 17 58.768239 -13 57 15.13284
 2018-Sep-10 06:50     15 17 54.231132 -13 56 36.84789
 2018-Sep-10 06:51     15 17 49.702043 -13 55 58.61841
